OBJECT_NAME,OBJECT_ID,EPOCH,MEAN_MOTION,ECCENTRICITY,INCLINATION,RA_OF_ASC_NODE,ARG_OF_PERICENTER,MEAN_ANOMALY,EPHEMERIS_TYPE,CLASSIFICATION_TYPE,NORAD_CAT_ID,ELEMENT_SET_NO,REV_AT_EPOCH,BSTAR,MEAN_MOTION_DOT,MEAN_MOTION_DDOT
GLOBALSTAR M069,2007-020C,2026-07-07T00:53:38.063040,12.23472106,.0001877,51.9996,195.9424,191.7859,202.4465,0,U,31573,999,88123,.1924E-3,-.72E-6,0
GLOBALSTAR M072,2007-020D,2026-07-07T00:50:35.707200,11.91658655,.0001614,51.9943,47.4055,18.7253,131.3324,0,U,31574,999,87734,.53259E-4,-.8E-6,0
GLOBALSTAR M066,2007-048C,2026-07-06T17:23:28.800096,12.30388599,.0005643,51.9608,1.8266,85.1113,288.6771,0,U,32265,999,86263,.414E-3,-.46E-6,0
GLOBALSTAR M079,2010-054A,2026-07-07T00:43:51.196224,12.62266480,.0001071,52.0047,48.2647,64.0932,83.4218,0,U,37188,999,72505,.19121E-4,-.1E-5,0
GLOBALSTAR M074,2010-054B,2026-07-06T00:48:56.272032,12.62261915,.0000832,52.0026,50.5602,79.0429,98.2745,0,U,37189,999,72553,.30384E-4,-.98E-6,0
GLOBALSTAR M076,2010-054C,2026-07-06T21:57:36.105408,12.62262107,.0001062,52.0038,48.0833,76.5581,26.0722,0,U,37190,999,72536,.32941E-4,-.98E-6,0
GLOBALSTAR M077,2010-054D,2026-07-06T05:37:50.861280,11.67547921,.00024138,51.9940,130.9494,207.8288,300.3196,0,U,37191,999,72336,.25916887E-3,-.64E-6,0
GLOBALSTAR M075,2010-054E,2026-07-07T04:18:06.762816,12.62267713,.0000614,51.9946,89.3214,51.6593,112.6591,0,U,37192,999,72446,.81765E-4,-.89E-6,0
GLOBALSTAR M073,2010-054F,2026-07-06T18:01:38.477856,12.62266881,.0001109,52.0074,4.7402,84.5846,291.7864,0,U,37193,999,72640,.54222E-4,-.94E-6,0
GLOBALSTAR M083,2011-033A,2026-07-06T12:58:22.946304,12.62263900,.0000902,51.9876,313.5840,96.2727,343.9772,0,U,37739,999,69539,.1208E-3,-.82E-6,0
GLOBALSTAR M088,2011-033B,2026-07-07T03:18:47.025792,12.62269257,.0000228,52.0185,218.2412,155.2772,240.0255,0,U,37740,999,69101,.31808E-4,-.98E-6,0
GLOBALSTAR M091,2011-033C,2026-07-06T23:47:56.464800,12.62264140,.000021,51.9967,181.6215,1.5579,28.7919,0,U,37741,999,69178,.33767E-4,-.98E-6,0
GLOBALSTAR M085,2011-033D,2026-07-06T05:02:54.526848,12.62264232,.00005721,52.0113,135.3081,21.1784,117.2647,0,U,37742,999,69219,.9788521E-4,-.86E-6,0
GLOBALSTAR M081,2011-033E,2026-07-06T22:25:51.188736,12.62265325,.0000485,51.9945,135.5174,44.1046,26.9012,0,U,37743,999,69243,.66453E-4,-.92E-6,0
GLOBALSTAR M089,2011-033F,2026-07-07T03:35:26.873376,12.62267530,.0000623,51.9930,89.0185,82.0290,67.4631,0,U,37744,999,69330,.53348E-4,-.94E-6,0
GLOBALSTAR M084,2011-080A,2026-07-06T16:15:47.464416,12.62267775,.0001006,52.0030,317.9472,117.5758,346.0140,0,U,38040,999,67122,.69683E-4,-.91E-6,0
GLOBALSTAR M080,2011-080B,2026-07-06T13:33:22.342752,12.62265488,.0000417,52.0077,320.0153,84.0224,356.8185,0,U,38041,999,67133,.6373E-4,-.92E-6,0
GLOBALSTAR M082,2011-080C,2026-07-06T14:04:26.858208,12.62263903,.0000302,52.0078,275.4537,112.4780,356.2185,0,U,38042,999,67204,.46668E-4,-.95E-6,0
GLOBALSTAR M092,2011-080D,2026-07-06T00:28:49.366848,12.62267535,.0000843,52.0098,7.5744,89.6289,83.2293,0,U,38043,999,67042,.12781E-3,-.81E-6,0
GLOBALSTAR M090,2011-080E,2026-07-06T12:49:38.558784,12.62252898,.0000506,52.0122,269.5743,106.9061,4.4358,0,U,38044,999,67215,.92001E-4,-.87E-6,0
GLOBALSTAR M086,2011-080F,2026-07-07T04:01:15.684096,12.62287691,.0001643,51.9893,267.5438,99.8007,272.6491,0,U,38045,999,67218,.9075E-4,-.88E-6,0
GLOBALSTAR M097,2013-005A,2026-07-06T04:00:37.008864,12.62271324,.00002212,52.0014,185.5594,39.5863,320.5020,0,U,39072,999,61930,-.908392E-6,-.104E-5,0
GLOBALSTAR M093,2013-005B,2026-07-07T00:16:17.599584,12.62266212,.0000437,52.0076,176.3431,34.1994,325.8901,0,U,39073,999,61936,.57576E-4,-.93E-6,0
GLOBALSTAR M094,2013-005C,2026-07-07T04:04:07.387680,12.62268512,.0000883,51.9960,89.9590,48.1361,311.9581,0,U,39074,999,62099,.24859E-4,-.99E-6,0
GLOBALSTAR M096,2013-005D,2026-07-06T05:35:18.379968,12.62265613,.00005266,52.0052,141.6262,24.7774,335.3118,0,U,39075,999,61979,.63036957E-4,-.92E-6,0
GLOBALSTAR M078,2013-005E,2026-07-07T01:50:50.815392,12.62259985,.0000649,51.9847,223.0415,312.8916,47.1896,0,U,39076,999,61852,.19431E-4,-.1E-5,0
GLOBALSTAR M095,2013-005F,2026-07-07T00:35:16.006848,12.62263964,.0000223,52.0055,220.8332,1.8049,358.2819,0,U,39077,999,61837,.47916E-4,-.95E-6,0
GLOBALSTAR M087,2022-064A,2026-07-06T23:00:10.478304,12.62269293,.0000955,52.0012,2.2602,73.0178,287.0793,0,U,52888,999,19363,.10119E-4,-.102E-5,0
